KUIPER-00035            
1 63748U 25088AA  25204.57934919 -.00088714  00000+0 -49963-2 0  9993
2 63748  51.8807  49.9101 0004182  80.6733 279.4716 15.13075441 13545
KUIPER-00037            
1 63749U 25088AB  25204.53789078 -.00134454  00000+0 -73782-2 0  9993
2 63749  51.8839  49.5259 0003580 356.7829   3.3124 15.14265562 14336
KUIPER-00038            
1 63750U 25088AC  25204.54029574  .00014043  00000+0  38302-3 0  9993
2 63750  51.8716  44.4513 0006931  64.7890 295.3815 15.37698444 13407
KUIPER-00039            
1 64500U 25134A   25204.21143788  .00017948  00000+0  53182-3 0  9997
2 64500  51.8675 187.6483 0007264 220.4950 139.5496 15.34898021  5358
KUIPER-00040            
1 64501U 25134B   25204.58336806 -.00011797  00000+0 -41152-3 0  9995
2 64501  51.8673 186.2317 0011528 235.3788 207.1796 15.28091871  5402
KUIPER-00041            
1 64502U 25134C   25204.58336806 -.01367337  00000+0 -61875-1 0  9993
2 64502  51.8706 186.2889 0008657 230.4091 150.4583 15.23608080  5401
KUIPER-00042            
1 64503U 25134D   25203.76136320  .00003380  00000+0  11053-3 0  9999
2 64503  51.8646 189.8749 0008614 221.4595 138.5737 15.34564776  5280
KUIPER-00043            
1 64504U 25134E   25204.34317888  .00019818  00000+0  58829-3 0  9990
2 64504  51.8683 187.0328 0008058 216.6290 143.4145 15.34765234  5757
